{
  "58516": {
    "noradId": "58516",
    "tle": [
      "1 58516C 23191J   26029.85881944  .00018223  00000+0  13441-2 0   291",
      "2 58516  43.0021 317.1391 0001396 268.3571 258.4943 15.02532145    17"
    ]
  },
  "58517": {
    "noradId": "58517",
    "tle": [
      "1 58517C 23191K   26029.85465278  .00018708  00000+0  13802-2 0   299",
      "2 58517  43.0034 317.2061 0001128 268.6984 217.5604 15.02521491    13"
    ]
  },
  "58518": {
    "noradId": "58518",
    "tle": [
      "1 58518C 23191L   26029.85743056 -.00011709  00000+0 -86392-3 0   294",
      "2 58518  43.0033 316.5309 0001196 270.5350 141.3682 15.02548314    17"
    ]
  },
  "58519": {
    "noradId": "58519",
    "tle": [
      "1 58519C 23191M   26029.84006944 -.00004889  00000+0 -36071-3 0   292",
      "2 58519  43.0032 316.6342 0001257 267.6982  32.1846 15.02542498    17"
    ]
  },
  "58520": {
    "noradId": "58520",
    "tle": [
      "1 58520C 23191N   26029.85812500 -.00004509  00000+0 -33269-3 0   293",
      "2 58520  43.0032 317.1044 0001206 269.6194 271.6273 15.02539469    13"
    ]
  },
  "58521": {
    "noradId": "58521",
    "tle": [
      "1 58521C 23191P   26029.85604167  .00001523  00000+0  11237-3 0   294",
      "2 58521  43.0032 317.0754 0001325 273.0024 275.0006 15.02532060    16"
    ]
  },
  "58522": {
    "noradId": "58522",
    "tle": [
      "1 58522C 23191Q   26029.86090278  .00002895  00000+0  21361-3 0   290",
      "2 58522  43.0037 317.0004 0001342 274.6015 317.7594 15.02530936    12"
    ]
  },
  "58523": {
    "noradId": "58523",
    "tle": [
      "1 58523C 23191R   26029.85743056  .00004184  00000+0  30878-3 0   295",
      "2 58523  43.0035 316.9778 0001260 273.6460 317.9484 15.02527221    12"
    ]
  },
  "58524": {
    "noradId": "58524",
    "tle": [
      "1 58524C 23191S   26029.86090278 -.00007741  00000+0 -57122-3 0   293",
      "2 58524  43.0030 316.9163 0001235 265.8177   2.6015 15.02541429    10"
    ]
  },
  "58525": {
    "noradId": "58525",
    "tle": [
      "1 58525C 23191T   26029.85534722  .00002058  00000+0  15185-3 0   297",
      "2 58525  43.0033 316.9017 0001255 273.7371 342.6282 15.02530880    10"
    ]
  },
  "58526": {
    "noradId": "58526",
    "tle": [
      "1 58526C 23191U   26029.86298611  .00020484  00000+0  14897-2 0   294",
      "2 58526  43.0029 316.6046 0000738 246.9771 158.4431 15.03059874    15"
    ]
  },
  "58527": {
    "noradId": "58527",
    "tle": [
      "1 58527C 23191V   26029.86229167 -.00006302  00000+0 -46497-3 0   292",
      "2 58527  43.0034 316.5160 0001044 273.0540 129.1721 15.02541202    11"
    ]
  },
  "58528": {
    "noradId": "58528",
    "tle": [
      "1 58528C 23191W   26029.85534722 -.00005415  00000+0 -39961-3 0   290",
      "2 58528  43.0037 316.8125 0001247 270.5043  21.9237 15.02539338    12"
    ]
  },
  "58529": {
    "noradId": "58529",
    "tle": [
      "1 58529C 23191X   26029.85812500 -.00004057  00000+0 -29918-3 0   296",
      "2 58529  43.0035 316.7572 0001282 270.9149  54.4971 15.02556244    17"
    ]
  },
  "58530": {
    "noradId": "58530",
    "tle": [
      "1 58530C 23191Y   26029.85604167 -.00001760  00000+0 -12986-3 0   291",
      "2 58530  43.0033 316.7257 0001343 271.8558  60.4021 15.02535976    11"
    ]
  },
  "58531": {
    "noradId": "58531",
    "tle": [
      "1 58531C 23192A   26029.85951389 -.00013665  00000+0 -46023-3 0   290",
      "2 58531  53.1564 242.9929 0001976  94.8749 201.6840 15.30227052    18"
    ]
  },
  "58532": {
    "noradId": "58532",
    "tle": [
      "1 58532C 23192B   26029.85604167  .00001217  00000+0  41010-4 0   290",
      "2 58532  53.1563 229.9677 0001289  87.3898 309.5150 15.30188538    19"
    ]
  },
  "58533": {
    "noradId": "58533",
    "tle": [
      "1 58533C 23192C   26029.85187500  .00011083  00000+0  37357-3 0   298",
      "2 58533  53.1573 243.4026 0001339  81.1028 358.9178 15.30176686    12"
    ]
  },
  "58534": {
    "noradId": "58534",
    "tle": [
      "1 58534C 23192D   26029.85534722 -.00004073  00000+0 -13727-3 0   299",
      "2 58534  53.1579 233.1564 0001266  90.3789 153.7071 15.30193611    17"
    ]
  },
  "58535": {
    "noradId": "58535",
    "tle": [
      "1 58535C 23192E   26029.86159722  .00003822  00000+0  12884-3 0   296",
      "2 58535  53.1563 243.0169 0001107  89.9055 200.7712 15.30184798    17"
    ]
  },
  "58536": {
    "noradId": "58536",
    "tle": [
      "1 58536C 23192F   26029.85673611 -.00003970  00000+0 -13380-3 0   292",
      "2 58536  53.1563 243.1080 0001242  88.6917 151.9094 15.30195867    13"
    ]
  },
  "58537": {
    "noradId": "58537",
    "tle": [
      "1 58537C 23192G   26029.83729167  .00000504  00000+0  16986-4 0   293",
      "2 58537  53.1564 243.1638 0001023  86.7646  52.5018 15.30187190    11"
    ]
  },
  "58538": {
    "noradId": "58538",
    "tle": [
      "1 58538C 23192H   26029.85604167  .00002978  00000+0  10037-3 0   295",
      "2 58538  53.1559 243.1923 0001283  87.0257  97.4194 15.30184789    17"
    ]
  },
  "58539": {
    "noradId": "58539",
    "tle": [
      "1 58539C 23192J   26029.85743056  .00006561  00000+0  22115-3 0   299",
      "2 58539  53.1565 243.2197 0001274  93.9107  80.7462 15.30179324    11"
    ]
  },
  "58540": {
    "noradId": "58540",
    "tle": [
      "1 58540C 23192K   26029.86159722  .00000616  00000+0  20779-4 0   293",
      "2 58540  53.1563 243.0965 0001157  88.9904 160.9743 15.30188692    12"
    ]
  },
  "58541": {
    "noradId": "58541",
    "tle": [
      "1 58541C 23192L   26029.86090278  .00026902  00000+0  90644-3 0   297",
      "2 58541  53.1581 319.9423 0001198  78.8822 108.1918 15.30173807    17"
    ]
  },
  "58542": {
    "noradId": "58542",
    "tle": [
      "1 58542C 23192M   26029.85881944  .00016104  00000+0  54288-3 0   292",
      "2 58542  53.1567 243.2464 0001311  85.5787  79.2862 15.30168324    12"
    ]
  },
  "58543": {
    "noradId": "58543",
    "tle": [
      "1 58543C 23192N   26029.84840278  .00005558  00000+0  18734-3 0   294",
      "2 58543  53.1571 243.3293 0001824  86.3248   3.6618 15.30184161    16"
    ]
  },
  "58544": {
    "noradId": "58544",
    "tle": [
      "1 58544C 23192P   26029.85812500  .00008004  00000+0  26984-3 0   298",
      "2 58544  53.1576 242.8188 0001308  86.9339 271.9023 15.30175441    14"
    ]
  },
  "58545": {
    "noradId": "58545",
    "tle": [
      "1 58545C 23192Q   26029.85604167  .00008619  00000+0  29050-3 0   296",
      "2 58545  53.1573 243.3271 0001303  80.3496  34.3001 15.30181227    14"
    ]
  },
  "58546": {
    "noradId": "58546",
    "tle": [
      "1 58546C 23192R   26029.85604167  .00002359  00000+0  79496-4 0   292",
      "2 58546  53.1575 243.3620 0001267  91.9585   5.2339 15.30189149    13"
    ]
  },
  "58547": {
    "noradId": "58547",
    "tle": [
      "1 58547C 23192S   26029.85604167  .00003367  00000+0  11347-3 0   293",
      "2 58547  53.1562 232.7808 0001209  84.8290 320.1815 15.30187097    18"
    ]
  },
  "58548": {
    "noradId": "58548",
    "tle": [
      "1 58548C 23192T   26029.85881944  .00007742  00000+0  26099-3 0   295",
      "2 58548  53.1573 242.8476 0001283  88.2423 256.9714 15.30176978    12"
    ]
  },
  "58549": {
    "noradId": "58549",
    "tle": [
      "1 58549C 23192U   26029.86229167 -.00023128  00000+0 -77929-3 0   296",
      "2 58549  53.1578 243.3667 0001386  81.5956  32.5627 15.30223672    12"
    ]
  },
  "58550": {
    "noradId": "58550",
    "tle": [
      "1 58550C 23192V   26029.85604167  .00011837  00000+0  39914-3 0   298",
      "2 58550  53.1568 242.9407 0001225  87.9460 224.4953 15.30164137    16"
    ]
  },
  "58551": {
    "noradId": "58551",
    "tle": [
      "1 58551C 23192W   26029.85881944  .00015803  00000+0  53276-3 0   293",
      "2 58551  53.1579 233.1421 0001529  91.1006  96.6454 15.30167762    19"
    ]
  },
  "58552": {
    "noradId": "58552",
    "tle": [
      "1 58552C 23192X   26029.86229167  .00001716  00000+0  57851-4 0   290",
      "2 58552  53.1581 243.4456 0001334  89.7332 343.7448 15.30188695    11"
    ]
  },
  "58589": {
    "noradId": "58589",
    "tle": [
      "1 58589C 23200A   26029.86229167  .00013171  00000+0  97248-3 0   291",
      "2 58589  43.0036  20.8600 0001225 232.8121 278.9624 15.02498319    19"
    ]
  },
  "58590": {
    "noradId": "58590",
    "tle": [
      "1 58590C 23200B   26029.86090278  .00014186  00000+0  10469-2 0   298",
      "2 58590  43.0038  22.8234 0001385 257.9056 148.1467 15.02513014    13"
    ]
  },
  "58592": {
    "noradId": "58592",
    "tle": [
      "1 58592C 23200D   26029.85743056 -.00004398  00000+0 -32457-3 0   296",
      "2 58592  43.0036  22.3455 0001248 265.4448 332.1637 15.02536283    17"
    ]
  },
  "58593": {
    "noradId": "58593",
    "tle": [
      "1 58593C 23200E   26029.85604167 -.00008904  00000+0 -65699-3 0   297",
      "2 58593  43.0035  21.6398 0001264 265.1573 266.1255 15.02542959    18"
    ]
  },
  "58594": {
    "noradId": "58594",
    "tle": [
      "1 58594C 23200F   26029.85812500 -.00004686  00000+0 -34579-3 0   296",
      "2 58594  43.0033  21.4493 0001192 268.3035 346.4081 15.02535302    12"
    ]
  },
  "58595": {
    "noradId": "58595",
    "tle": [
      "1 58595C 23200G   26029.85673611  .00014640  00000+0  10802-2 0   296",
      "2 58595  43.0033  21.5063 0001331 256.9905 332.1224 15.02524355    18"
    ]
  },
  "58596": {
    "noradId": "58596",
    "tle": [
      "1 58596C 23200H   26029.85743056 -.00000257  00000+0 -92980-5 0   299",
      "2 58596  43.0012 231.4342 0001381 269.5061  37.1784 15.27564736    13"
    ]
  },
  "58597": {
    "noradId": "58597",
    "tle": [
      "1 58597C 23200J   26029.86090278  .00005816  00000+0  42922-3 0   295",
      "2 58597  43.0033  21.3963 0001307 258.7154  29.0743 15.02522256    12"
    ]
  }
}